STARLINK-32204          
1 60584U 24150B   24257.52574101 -.00032374  00000+0 -57879-3 0  9999
2 60584  53.1601 308.1648 0001933  81.2396 278.8832 15.49191372  4998
STARLINK-32130          
1 60585U 24150C   24257.58334491 -.01372424  00000+0 -36367-1 0  9993
2 60585  53.1594 307.9400 0001568  71.2585 225.7933 15.40656600  4844
STARLINK-32173          
1 60586U 24150D   24257.52503802 -.00041175  00000+0 -73862-3 0  9990
2 60586  53.1597 308.1591 0002213  99.5482 260.5777 15.49211645  4993
STARLINK-31911          
1 60587U 24150E   24257.52501112 -.00365813  00000+0 -71211-2 0  9996
2 60587  53.1605 308.1584 0003566  42.3901 317.7383 15.48324128  4875
STARLINK-31994          
1 60588U 24150F   24257.45984239 -.00045187  00000+0 -81199-3 0  9990
2 60588  53.1598 308.4614 0002305  71.9980 288.1280 15.49204342  4861
STARLINK-32169          
1 60589U 24150G   24257.50001157 -.00148100  00000+0 -37554-2 0  9990
2 60589  53.1604 308.4327 0001767  88.4023  55.6791 15.39694097  4990
STARLINK-32209          
1 60590U 24150H   24257.52365773 -.00053281  00000+0 -95972-3 0  9995
2 60590  53.1595 308.1498 0002216 100.1433 259.9826 15.49209399  4990
STARLINK-32170          
1 60591U 24150J   24257.50001157  .00030037  00000+0  75879-3 0  9993
2 60591  53.1602 308.3816 0001381  76.6444  93.1126 15.39585615  4861
STARLINK-31497          
1 60592U 24150K   24257.52295897 -.00022858  00000+0 -40470-3 0  9995
2 60592  53.1595 308.1464 0002150 105.7963 254.3283 15.49265303  4994
STARLINK-32161          
1 60593U 24150L   24257.45811958 -.00062390  00000+0 -11270-2 0  9990
2 60593  53.1592 308.4527 0002459  77.0829 283.0454 15.49195868  4930
STARLINK-32210          
1 60594U 24150M   24257.52229790 -.00032686  00000+0 -58398-3 0  9994
2 60594  53.1592 308.1434 0002227  92.9321 267.1943 15.49213748  4991
STARLINK-32202          
1 60595U 24150N   24257.50001157 -.02192592  00000+0 -56394-1 0  9995
2 60595  53.1594 308.2864 0001288  67.6553 149.6584 15.41988496  4989
STARLINK-31930          
1 60596U 24150P   24257.52160301 -.00045675  00000+0 -82090-3 0  9996
2 60596  53.1595 308.1370 0002077 108.5021 251.6214 15.49204802  4832
STARLINK-32162          
1 60597U 24150Q   24257.58334491  .00015279  00000+0  39108-3 0  9993
2 60597  53.1601 307.9924 0000980  32.0084 238.0462 15.39628662  5001
STARLINK-32208          
1 60598U 24150R   24257.50001157 -.00073647  00000+0 -18483-2 0  9993
2 60598  53.1605 308.4357 0001247  71.4744  70.7324 15.39631602  4992
STARLINK-32165          
1 60599U 24150S   24257.16667824  .00016389  00000+0  41890-3 0  9992
2 60599  53.1602 309.9013 0000900  82.7591  62.3456 15.39613494  4931
STARLINK-31923          
1 60600U 24150T   24257.50001157 -.01344256  00000+0 -35575-1 0  9995
2 60600  53.1593 308.2784 0001492  73.2196 147.4544 15.40637094  4996
STARLINK-31988          
1 60601U 24150U   24257.50001157 -.02153463  00000+0 -52364-1 0  9990
2 60601  53.1591 308.2433 0001083  72.8016 166.3756 15.44160053  4870
STARLINK-31983          
1 60602U 24150V   24257.51954820 -.00296427  00000+0 -56021-2 0  9997
2 60602  53.1592 308.1236 0006668 212.9186 147.1408 15.48883253  4870
STARLINK-31874          
1 60603U 24150W   24257.13212532 -.00001339  00000+0 -16024-4 0  9990
2 60603  53.1598 309.9707 0000777 124.3847 235.7235 15.49309960  4921
STARLINK-32039          
1 60604U 24150X   24257.16667824 -.01336505  00000+0 -35202-1 0  9995
2 60604  53.1602 309.8880 0001202  99.7111  52.2445 15.40765665  4937
ZHONGXING-4A            
1 60606U 24151A   24256.99632944 -.00000364  00000+0  00000+0 0  9998
2 60606   2.9828 278.2518 0000978 335.7688 215.3690  1.00276667   300
CZ-7A R/B               
1 60607U 24151B   24247.17828704  .00829450  16382-5  18628-2 0  9998
2 60607  14.6957 176.6447 7136648 176.6235 201.0779  2.53358494   181
STARLINK-11247 [DTC]    
1 60720U 24152A   24257.25001157 -.01081556  00000+0 -71256-2 0  9990
2 60720  53.1504 270.6999 0000597  93.4349 246.1652 15.77436665  3649
STARLINK-11259 [DTC]    
1 60721U 24152B   24257.25001157 -.01083066  00000+0 -69211-2 0  9997
2 60721  53.1506 270.6606 0000649  88.0843 270.6175 15.78115469  3496
STARLINK-11188 [DTC]    
1 60722U 24152C   24257.58334491 -.01056841  00000+0 -67736-2 0  9995
2 60722  53.1498 268.9576 0000848  73.7367  38.9654 15.77988405  3805
STARLINK-11272 [DTC]    
1 60723U 24152D   24257.58334491 -.01059894  00000+0 -64050-2 0  9993
2 60723  53.1495 268.8808 0000809  68.6528  81.1975 15.79288000  3700
STARLINK-11261 [DTC]    
1 60724U 24152E   24257.25001157 -.01084082  00000+0 -65279-2 0  9999
2 60724  53.1502 270.5846 0000669 103.1798 292.3285 15.79420915  3646
STARLINK-11263 [DTC]    
1 60725U 24152F   24257.58334491 -.01059592  00000+0 -62178-2 0  9999
2 60725  53.1495 268.8441 0001100  78.0505  89.5817 15.79923862  3709
STARLINK-11235 [DTC]    
1 60726U 24152G   24257.25001157 -.01081243  00000+0 -59587-2 0  9992
2 60726  53.1500 270.4792 0000719 103.8269 342.7490 15.81326828  3763
STARLINK-11080 [DTC]    
1 60727U 24152H   24257.58334491 -.01043855  00000+0 -58816-2 0  9990
2 60727  53.1491 268.7740 0000941  69.0429 132.6430 15.81174790  3819
STARLINK-11249 [DTC]    
1 60728U 24152J   24257.58334491 -.01043662  00000+0 -57144-2 0  9990
2 60728  53.1491 268.7401 0000845  89.1702 128.8813 15.81785959  3709
STARLINK-11146 [DTC]    
1 60729U 24152K   24257.58334491 -.00973814  00000+0 -51507-2 0  9998
2 60729  53.1493 268.7078 0000876  47.8746 186.0332 15.82338514  3811
STARLINK-11255 [DTC]    
1 60730U 24152L   24257.58334491 -.01024300  00000+0 -53109-2 0  9998
2 60730  53.1487 268.6753 0000903  36.9194 212.4308 15.82886895  3707
STARLINK-11254 [DTC]    
1 60731U 24152M   24257.58334491 -.01078524  00000+0 -54288-2 0  9995
2 60731  53.1485 268.6458 0001162  54.8555 208.8440 15.83642769  3703
STARLINK-11266 [DTC]    
1 60732U 24152N   24257.50001157 -.00558474  00000+0 -25995-2 0  9997
2 60732  53.1486 269.0352 0001055  52.5139 110.5797 15.84003428  3682
STARLINK-32253          
1 60733U 24152P   24257.25001157 -.01746804  00000+0 -14125-1 0  9999
2 60733  53.1511 270.7593 0001200 102.9638 207.4230 15.73226867  3707
STARLINK-32179          
1 60734U 24152Q   24257.25001157 -.01743855  00000+0 -14100-1 0  9996
2 60734  53.1513 270.7633 0001053 109.2474 199.2236 15.73224962  3651
STARLINK-32272          
1 60735U 24152R   24257.25001157 -.01749082  00000+0 -14145-1 0  9994
2 60735  53.1510 270.7547 0001188  94.0613 218.2412 15.73228590  3714
STARLINK-32280          
1 60736U 24152S   24257.25001157 -.01747418  00000+0 -14131-1 0  9991
2 60736  53.1510 270.7510 0001102  94.3997 219.8199 15.73227368  3710
STARLINK-32289          
1 60737U 24152T   24257.25001157 -.01748503  00000+0 -14140-1 0  9998
2 60737  53.1507 270.7467 0001181  95.9330 220.2025 15.73228126  3743
STARLINK-32304          
1 60738U 24152U   24257.25001157 -.01744577  00000+0 -14107-1 0  9999
2 60738  53.1509 270.7428 0000935  97.4299 220.6242 15.73225638  3740
STARLINK-32235          
1 60739U 24152V   24257.50001157 -.01662990  00000+0 -14020-1 0  9990
2 60739  53.1529 269.5012 0001266 116.6317 179.9781 15.72104854  3740
STARLINK-32315          
1 60740U 24152W   24257.58334491 -.01660479  00000+0 -14109-1 0  9998
2 60740  53.1511 269.0848 0000775  72.9692 337.1185 15.71922132  3707
2024-153A               
1 60745U 24153A   24257.51332180  .00024808  00000+0  15307-2 0  9999
2 60745  97.6161  14.9500 0015832 231.1077 128.8741 15.09801391  2317
2024-153B               
1 60746U 24153B   24257.51063722  .00033483  00000+0  20419-2 0  9992
2 60746  97.6163  14.9545 0015786 234.6180 125.3574 15.10161061  2311
2024-153C               
1 60747U 24153C   24257.51038771  .00036406  00000+0  22152-2 0  9993
2 60747  97.6160  14.9544 0016514 234.2449 125.7245 15.10212490  2314
2024-153D               
1 60748U 24153D   24257.50967164  .00039181  00000+0  23764-2 0  9993
2 60748  97.6194  14.9623 0015880 234.9856 124.9883 15.10319051  2314
2024-153E               
1 60749U 24153E   24257.50928445  .00039615  00000+0  24002-2 0  9991
2 60749  97.6161  14.9560 0015315 236.1563 123.8209 15.10362574  2319
2024-153F               
1 60750U 24153F   24257.30955900  .00042361  00000+0  25589-2 0  9990
2 60750  97.6126  14.7526 0016033 237.7834 122.1841 15.10443875  2282
2024-153G               
1 60751U 24153G   24257.49532167  .00145013  75190-5  12926-2 0  9994
2 60751  97.6403  15.9907 0167116 314.4977  44.2714 15.52503633  2375
2024-153H               
1 60752U 24153H   24242.34728060 -.00000069  00000+0  00000+0 0  9993
2 60752  97.3719   0.5652 0013970  33.0832  33.4934 15.22204973    28
STARLINK-11242 [DTC]    
1 60903U 24154A   24257.25001157 -.00069116  00000+0 -42276-3 0  9993
2 60903  53.1527 287.7799 0001276  89.6965 289.6908 15.76672716  3284
STARLINK-11256 [DTC]    
1 60904U 24154B   24257.50001157  .00169787  00000+0  10287-2 0  9991
2 60904  53.1525 286.4792 0001118  84.0726 302.8331 15.76553601  3314
STARLINK-11159 [DTC]    
1 60905U 24154C   24257.50001157  .00291808  00000+0  17346-2 0  9995
2 60905  53.1519 286.4221 0001076 102.2401 312.3139 15.76621077  3327
STARLINK-11264 [DTC]    
1 60906U 24154D   24257.25001157  .00026648  00000+0  16631-3 0  9993
2 60906  53.1518 287.6094 0001478  67.3768  34.8618 15.76727088  3283
STARLINK-11226 [DTC]    
1 60907U 24154E   24257.25001157 -.00020348  00000+0 -12067-3 0  9996
2 60907  53.1518 287.5525 0000613  96.6518  33.2981 15.76721934  3279
STARLINK-11229 [DTC]    
1 60908U 24154F   24257.25001157 -.00996096  00000+0 -63433-2 0  9991
2 60908  53.1516 287.4999 0001133  73.0545  82.2824 15.78390944  3274
